[
    {
        "Altitude(m)": 624790.8381185333,
        "Argument of Periapsis(deg)": 0.0,
        "Eccentricity": 0.0,
        "Inclination(deg)": 60.0,
        "Latitude(deg)": -59.14724612407584,
        "Longitude(deg)": -73.96535200076661,
        "Mean Anomaly(deg)": -81.81820000000002,
        "RAAN(deg)": 100.0,
        "Satellite Name": "Test1 457",
        "Satellite Number": 457,
        "Semi-Major Axis(m)": 6980739.136638005,
        "Time(s)": 0
    },
    {
        "Altitude(m)": 624737.4931393671,
        "Argument of Periapsis(deg)": 0.00010418945913296404,
        "Eccentricity": 0.0,
        "Inclination(deg)": 60.0,
        "Latitude(deg)": -58.994700754616034,
        "Longitude(deg)": -72.84584599648595,
        "Mean Anomaly(deg)": -81.19809385453819,
        "RAAN(deg)": 99.99957995086025,
        "Satellite Name": "Test1 457",
        "Satellite Number": 457,
        "Semi-Major Axis(m)": 6980739.136638005,
        "Time(s)": 10
    }
]